{
  "type": "FeatureCollection",
  "features": [
    {
      "type": "Feature",
      "properties": {
        "norad_id": 37600,
        "name": "FENGYUN 1C DEB",
        "group": "fengyun-1c-debris",
        "lat": 80.0637464026365,
        "lon": 78.15381962570473,
        "alt_km": 723.1327286604492,
        "timestamp": "2025-12-11T07:02:24.019459+00:00",
        "meta_object_name": "FENGYUN 1C DEB",
        "meta_object_id": "1999-025EKU",
        "meta_epoch": "2025-12-10T16:45:29.853216",
        "meta_mean_motion": 13.82516615,
        "meta_eccentricity": 0.03571097,
        "meta_inclination": 98.9359,
        "meta_ra_of_asc_node": 141.5016,
        "meta_arg_of_pericenter": 55.1402,
        "meta_mean_anomaly": 308.2787,
        "meta_ephemeris_type": 0,
        "meta_classification_type": "U",
        "meta_norad_cat_id": 37600,
        "meta_element_set_no": 999,
        "meta_rev_at_epoch": 88459,
        "meta_bstar": 0.0037547673,
        "meta_mean_motion_dot": 6.602e-05,
        "meta_mean_motion_ddot": 0,
        "tle_line1": "1 37600U 99025EKU 25344.69826219  .00006602  00000+0  37548-2 0  9994",
        "tle_line2": "2 37600  98.9359 141.5016 0357109  55.1402 308.2787 13.82516615884598"
      },
      "geometry": {
        "type": "Point",
        "coordinates": [
          78.15381962570473,
          80.0637464026365
        ]
      }
    },
    {
      "type": "Feature",
      "properties": {
        "norad_id": 37683,
        "name": "FENGYUN 1C DEB",
        "group": "fengyun-1c-debris",
        "lat": -42.3579590928415,
        "lon": -87.22172844069077,
        "alt_km": 1580.5017221186208,
        "timestamp": "2025-12-11T07:02:24.019469+00:00",
        "meta_object_name": "FENGYUN 1C DEB",
        "meta_object_id": "1999-025EKY",
        "meta_epoch": "2025-12-09T14:24:19.052928",
        "meta_mean_motion": 13.31891434,
        "meta_eccentricity": 0.0584846,
        "meta_inclination": 98.0018,
        "meta_ra_of_asc_node": 264.0818,
        "meta_arg_of_pericenter": 133.0505,
        "meta_mean_anomaly": 351.3264,
        "meta_ephemeris_type": 0,
        "meta_classification_type": "U",
        "meta_norad_cat_id": 37683,
        "meta_element_set_no": 999,
        "meta_rev_at_epoch": 29198,
        "meta_bstar": 0.002005,
        "meta_mean_motion_dot": 2.501e-05,
        "meta_mean_motion_ddot": 0,
        "tle_line1": "1 37683U 99025EKY 25343.60022052  .00002501  00000+0  20050-2 0  9992",
        "tle_line2": "2 37683  98.0018 264.0818 0584846 133.0505 351.3264 13.31891434291986"
      },
      "geometry": {
        "type": "Point",
        "coordinates": [
          -87.22172844069077,
          -42.3579590928415
        ]
      }
    },
    {
      "type": "Feature",
      "properties": {
        "norad_id": 37686,
        "name": "FENGYUN 1C DEB",
        "group": "fengyun-1c-debris",
        "lat": -45.00989242864748,
        "lon": 13.03226095967683,
        "alt_km": 1129.2193873557808,
        "timestamp": "2025-12-11T07:02:24.019479+00:00",
        "meta_object_name": "FENGYUN 1C DEB",
        "meta_object_id": "1999-025ELB",
        "meta_epoch": "2025-12-07T08:01:13.554624",
        "meta_mean_motion": 13.35357238,
        "meta_eccentricity": 0.03961144,
        "meta_inclination": 99.0216,
        "meta_ra_of_asc_node": 0.3813,
        "meta_arg_of_pericenter": 55.6647,
        "meta_mean_anomaly": 320.2432,
        "meta_ephemeris_type": 0,
        "meta_classification_type": "U",
        "meta_norad_cat_id": 37686,
        "meta_element_set_no": 999,
        "meta_rev_at_epoch": 60555,
        "meta_bstar": 0.00092551492,
        "meta_mean_motion_dot": 6.98e-06,
        "meta_mean_motion_ddot": 0,
        "tle_line1": "1 37686U 99025ELB 25341.33418466  .00000698  00000+0  92551-3 0  9992",
        "tle_line2": "2 37686  99.0216   0.3813 0396114  55.6647 320.2432 13.35357238605558"
      },
      "geometry": {
        "type": "Point",
        "coordinates": [
          13.03226095967683,
          -45.00989242864748
        ]
      }
    },
    {
      "type": "Feature",
      "properties": {
        "norad_id": 37687,
        "name": "FENGYUN 1C DEB",
        "group": "fengyun-1c-debris",
        "lat": 65.46955781853912,
        "lon": -140.9688340005282,
        "alt_km": 1016.1164263111732,
        "timestamp": "2025-12-11T07:02:24.019489+00:00",
        "meta_object_name": "FENGYUN 1C DEB",
        "meta_object_id": "1999-025ELC",
        "meta_epoch": "2025-12-09T22:08:56.355072",
        "meta_mean_motion": 13.85271364,
        "meta_eccentricity": 0.03335067,
        "meta_inclination": 98.2054,
        "meta_ra_of_asc_node": 19.3976,
        "meta_arg_of_pericenter": 6.6751,
        "meta_mean_anomaly": 112.1518,
        "meta_ephemeris_type": 0,
        "meta_classification_type": "U",
        "meta_norad_cat_id": 37687,
        "meta_element_set_no": 999,
        "meta_rev_at_epoch": 83215,
        "meta_bstar": 0.0045030182,
        "meta_mean_motion_dot": 7.869e-05,
        "meta_mean_motion_ddot": 0,
        "tle_line1": "1 37687U 99025ELC 25343.92287448  .00007869  00000+0  45030-2 0  9990",
        "tle_line2": "2 37687  98.2054  19.3976 0333506   6.6751 112.1518 13.85271364832159"
      },
      "geometry": {
        "type": "Point",
        "coordinates": [
          -140.9688340005282,
          65.46955781853912
        ]
      }
    },
    {
      "type": "Feature",
      "properties": {
        "norad_id": 37689,
        "name": "FENGYUN 1C DEB",
        "group": "fengyun-1c-debris",
        "lat": 12.093443555097474,
        "lon": -151.937697537896,
        "alt_km": 727.9998787395789,
        "timestamp": "2025-12-11T07:02:24.019499+00:00",
        "meta_object_name": "FENGYUN 1C DEB",
        "meta_object_id": "1999-025ELE",
        "meta_epoch": "2025-12-07T09:25:52.270176",
        "meta_mean_motion": 14.48499283,
        "meta_eccentricity": 0.00203303,
        "meta_inclination": 98.9195,
        "meta_ra_of_asc_node": 22.0174,
        "meta_arg_of_pericenter": 255.7639,
        "meta_mean_anomaly": 104.1295,
        "meta_ephemeris_type": 0,
        "meta_classification_type": "U",
        "meta_norad_cat_id": 37689,
        "meta_element_set_no": 999,
        "meta_rev_at_epoch": 57735,
        "meta_bstar": 0.0039954298,
        "meta_mean_motion_dot": 0.00015015,
        "meta_mean_motion_ddot": 0,
        "tle_line1": "1 37689U 99025ELE 25341.39296609  .00015015  00000+0  39954-2 0  9990",
        "tle_line2": "2 37689  98.9195  22.0174 0020330 255.7639 104.1295 14.48499283577358"
      },
      "geometry": {
        "type": "Point",
        "coordinates": [
          -151.937697537896,
          12.093443555097474
        ]
      }
    },
    {
      "type": "Feature",
      "properties": {
        "norad_id": 37691,
        "name": "FENGYUN 1C DEB",
        "group": "fengyun-1c-debris",
        "lat": -36.053755104552415,
        "lon": 62.811426219136514,
        "alt_km": 609.1938112587713,
        "timestamp": "2025-12-11T07:02:24.019509+00:00",
        "meta_object_name": "FENGYUN 1C DEB",
        "meta_object_id": "1999-025ELG",
        "meta_epoch": "2025-12-07T11:26:56.697504",
        "meta_mean_motion": 14.57450494,
        "meta_eccentricity": 0.02807584,
        "meta_inclination": 98.3722,
        "meta_ra_of_asc_node": 245.1225,
        "meta_arg_of_pericenter": 166.3843,
        "meta_mean_anomaly": 194.5134,
        "meta_ephemeris_type": 0,
        "meta_classification_type": "U",
        "meta_norad_cat_id": 37691,
        "meta_element_set_no": 999,
        "meta_rev_at_epoch": 85557,
        "meta_bstar": 0.0027432659,
        "meta_mean_motion_dot": 0.00021485,
        "meta_mean_motion_ddot": 0,
        "tle_line1": "1 37691U 99025ELG 25341.47704511  .00021485  00000+0  27433-2 0  9995",
        "tle_line2": "2 37691  98.3722 245.1225 0280758 166.3843 194.5134 14.57450494855571"
      },
      "geometry": {
        "type": "Point",
        "coordinates": [
          62.811426219136514,
          -36.053755104552415
        ]
      }
    },
    {
      "type": "Feature",
      "properties": {
        "norad_id": 37693,
        "name": "FENGYUN 1C DEB",
        "group": "fengyun-1c-debris",
        "lat": 2.2548540616148824,
        "lon": 165.48900987413722,
        "alt_km": 874.8196478271375,
        "timestamp": "2025-12-11T07:02:24.019520+00:00",
        "meta_object_name": "FENGYUN 1C DEB",
        "meta_object_id": "1999-025ELJ",
        "meta_epoch": "2025-12-06T17:55:30.127008",
        "meta_mean_motion": 14.0846487,
        "meta_eccentricity": 0.00725318,
        "meta_inclination": 98.6978,
        "meta_ra_of_asc_node": 340.7595,
        "meta_arg_of_pericenter": 91.6733,
        "meta_mean_anomaly": 85.1425,
        "meta_ephemeris_type": 0,
        "meta_classification_type": "U",
        "meta_norad_cat_id": 37693,
        "meta_element_set_no": 999,
        "meta_rev_at_epoch": 62064,
        "meta_bstar": 0.00098860763,
        "meta_mean_motion_dot": 1.695e-05,
        "meta_mean_motion_ddot": 0,
        "tle_line1": "1 37693U 99025ELJ 25340.74687647  .00001695  00000+0  98861-3 0  9991",
        "tle_line2": "2 37693  98.6978 340.7595 0072531  91.6733  85.1425 14.08464870620642"
      },
      "geometry": {
        "type": "Point",
        "coordinates": [
          165.48900987413722,
          2.2548540616148824
        ]
      }
    }
  ]
}